NORAD_CAT_ID,OBJECT_NAME,OBJECT_TYPE,EPOCH,MEAN_MOTION,ECCENTRICITY,INCLINATION,RA_OF_ASC_NODE,ARG_OF_PERICENTER,MEAN_ANOMALY,BSTAR,MEAN_MOTION_DOT,MEAN_MOTION_DDOT,TLE_LINE0,TLE_LINE1,TLE_LINE2,SEMIMAJOR_AXIS,PERIOD,APOGEE,PERIGEE,DECAYED
56462.0,STARLINK-6045,PAYLOAD,2024-01-22 22:04:35,14.9832621,0.0002593,69.9997,262.7823,258.2863,101.8005,-1.9259e-05,-3.23e-06,0.0,0 STARLINK-6045,1 56462U 23064Q   24022.91985872 -.00000323  00000-0 -19259-4 0  9997,2 56462  69.9997 262.7823 0002593 258.2863 101.8005 14.98326210 39886,6950.205,96.107,573.872,570.267,0.0
56462.0,STARLINK-6045,PAYLOAD,2024-01-23 01:16:51,14.98327621,0.0002575,69.9997,262.4457,257.5254,102.5617,-2.3121e-06,-1.21e-06,0.0,0 STARLINK-6045,1 56462U 23064Q   24023.05337749 -.00000121  00000-0 -23121-5 0  9997,2 56462  69.9997 262.4457 0002575 257.5254 102.5617 14.98327621 39909,6950.2,96.107,573.855,570.276,0.0
56462.0,STARLINK-6045,PAYLOAD,2024-01-23 22:06:41,14.98272465,0.0002668,69.9999,260.2582,269.6366,90.4487,-0.00063643,-7.667e-05,0.0,0 STARLINK-6045,1 56462U 23064Q   24023.92130922 -.00007667  00000-0 -63643-3 0  9990,2 56462  69.9999 260.2582 0002668 269.6366  90.4487 14.98272465 40038,6950.371,96.111,574.09,570.381,0.0
56462.0,STARLINK-6045,PAYLOAD,2024-01-24 01:19:00,14.98239924,0.0002653,69.9994,259.921,253.7202,106.3666,-0.00098256,-0.00011769,0.0,0 STARLINK-6045,1 56462U 23064Q   24024.05486570 -.00011769  00000-0 -98256-3 0  9994,2 56462  69.9994 259.9210 0002653 253.7202 106.3666 14.98239924 40414,6950.471,96.113,574.18,570.492,0.0
56462.0,STARLINK-6045,PAYLOAD,2024-01-24 20:32:26,14.98369773,0.0002599,69.9992,257.9006,261.1951,98.8914,0.00048067,5.653e-05,0.0,0 STARLINK-6045,1 56462U 23064Q   24024.85586334  .00005653  00000-0  48067-3 0  9999,2 56462  69.9992 257.9006 0002599 261.1951  98.8914 14.98369773 40536,6950.07,96.104,573.741,570.129,0.0
56462.0,STARLINK-6045,PAYLOAD,2024-01-24 22:08:34,14.98363907,0.0002142,70.0011,257.7335,239.7881,120.3066,0.00046481,5.462e-05,0.0,0 STARLINK-6045,1 56462U 23064Q   24024.92262581  .00005462  00000-0  46481-3 0  9998,2 56462  70.0011 257.7335 0002142 239.7881 120.3066 14.98363907 40184,6950.088,96.105,573.442,570.464,0.0
56462.0,STARLINK-6045,PAYLOAD,2024-01-25 01:20:50,14.98364636,0.0001744,70.0015,257.3967,248.2541,111.8433,0.00048491,5.703e-05,0.0,0 STARLINK-6045,1 56462U 23064Q   24025.05614335  .00005703  00000-0  48491-3 0  9992,2 56462  70.0015 257.3967 0001744 248.2541 111.8433 14.98364636 40565,6950.086,96.105,573.163,570.739,0.0
56462.0,STARLINK-6045,PAYLOAD,2024-01-25 20:34:31,14.98275472,0.000345,69.9981,255.3723,287.2609,72.8173,0.00047437,5.564e-05,0.0,0 STARLINK-6045,1 56462U 23064Q   24025.85731346  .00005564  00000-0  47437-3 0  9996,2 56462  69.9981 255.3723 0003450 287.2609  72.8173 14.98275472 40685,6950.362,96.11,574.624,569.829,0.0
56462.0,STARLINK-6045,PAYLOAD,2024-01-25 22:10:39,14.98291483,0.0003666,69.9973,255.2058,283.1007,76.9742,0.00039562,4.626e-05,0.0,0 STARLINK-6045,1 56462U 23064Q   24025.92406725  .00004626  00000-0  39562-3 0  9992,2 56462  69.9973 255.2058 0003666 283.1007  76.9742 14.98291483 40331,6950.312,96.109,574.725,569.629,0.0
56462.0,STARLINK-6045,PAYLOAD,2024-01-26 01:22:55,14.98293277,0.0003479,69.998,254.8722,273.5844,86.4917,0.00037654,4.398e-05,0.0,0 STARLINK-6045,1 56462U 23064Q   24026.05758832  .00004398  00000-0  37654-3 0  9992,2 56462  69.9980 254.8722 0003479 273.5844  86.4917 14.98293277 40711,6950.306,96.109,574.589,569.753,0.0
56462.0,STARLINK-6045,PAYLOAD,2024-01-26 19:00:23,14.98343516,0.0003157,69.9985,253.0193,267.1384,92.9413,-0.00050298,-6.091e-05,0.0,0 STARLINK-6045,1 56462U 23064Q   24026.79194384 -.00006091  00000-0 -50298-3 0  9992,2 56462  69.9985 253.0193 0003157 267.1384  92.9413 14.98343516 40827,6950.151,96.106,574.21,569.822,0.0
56462.0,STARLINK-6045,PAYLOAD,2024-01-26 23:48:47,14.9834919,0.0002898,69.9988,252.5145,258.7253,101.358,-0.0004103,-4.988e-05,0.0,0 STARLINK-6045,1 56462U 23064Q   24026.99221546 -.00004988  00000-0 -41030-3 0  9992,2 56462  69.9988 252.5145 0002898 258.7253 101.3580 14.98349190 40850,6950.134,96.106,574.013,569.984,0.0
56462.0,STARLINK-6045,PAYLOAD,2024-01-27 19:02:24,14.98319657,0.0002787,69.9992,250.4931,258.5289,101.5557,0.00016258,1.847e-05,0.0,0 STARLINK-6045,1 56462U 23064Q   24027.79333749  .00001847  00000-0  16258-3 0  9993,2 56462  69.9992 250.4931 0002787 258.5289 101.5557 14.98319657 40973,6950.225,96.108,574.027,570.153,0.0
56462.0,STARLINK-6045,PAYLOAD,2024-01-27 22:14:40,14.98321715,0.0002733,69.9994,250.1567,259.3859,100.6993,0.00018231,2.082e-05,0.0,0 STARLINK-6045,1 56462U 23064Q   24027.92685651  .00002082  00000-0  18231-3 0  9995,2 56462  69.9994 250.1567 0002733 259.3859 100.6993 14.98321715 40635,6950.219,96.108,573.983,570.184,0.0
56462.0,STARLINK-6045,PAYLOAD,2024-01-28 01:26:56,14.98323151,0.0002732,69.9994,249.8201,260.8656,99.2194,0.00018918,2.165e-05,0.0,0 STARLINK-6045,1 56462U 23064Q   24028.06037612  .00002165  00000-0  18918-3 0  9993,2 56462  69.9994 249.8201 0002732 260.8656  99.2194 14.98323151 40650,6950.214,96.107,573.978,570.18,0.0
56462.0,STARLINK-6045,PAYLOAD,2024-01-28 19:04:25,14.9833111,0.0002711,69.9994,247.9681,263.7952,96.2898,9.7517e-05,1.071e-05,0.0,0 STARLINK-6045,1 56462U 23064Q   24028.79473510  .00001071  00000-0  97517-4 0  9992,2 56462  69.9994 247.9681 0002711 263.7952  96.2898 14.98331110 41124,6950.189,96.107,573.939,570.17,0.0
56462.0,STARLINK-6045,PAYLOAD,2024-01-28 22:16:41,14.98332319,0.0002701,69.9993,247.6314,263.483,96.6021,0.00010727,1.187e-05,0.0,0 STARLINK-6045,1 56462U 23064Q   24028.92825383  .00001187  00000-0  10727-3 0  9991,2 56462  69.9993 247.6314 0002701 263.4830  96.6021 14.98332319 40789,6950.186,96.107,573.928,570.173,0.0
56462.0,STARLINK-6045,PAYLOAD,2024-01-29 01:28:57,14.98333102,0.0002685,69.9994,247.2951,263.884,96.2013,0.00011074,1.229e-05,0.0,0 STARLINK-6045,1 56462U 23064Q   24029.06177290  .00001229  00000-0  11074-3 0  9997,2 56462  69.9994 247.2951 0002685 263.8840  96.2013 14.98333102 40800,6950.183,96.107,573.914,570.182,0.0
56462.0,STARLINK-6045,PAYLOAD,2024-01-29 23:54:50,14.98331411,0.0002621,69.9996,244.9387,265.7453,94.3407,-3.2846e-05,-4.85e-06,0.0,0 STARLINK-6045,1 56462U 23064Q   24029.99641610 -.00000485  00000-0 -32846-4 0  9997,2 56462  69.9996 244.9387 0002621 265.7453  94.3407 14.98331411 41303,6950.189,96.107,573.875,570.232,0.0
56462.0,STARLINK-6045,PAYLOAD,2024-01-30 14:20:02,14.98333452,0.0002549,69.9995,243.4236,266.5993,93.4874,-3.7578e-05,-5.41e-06,0.0,0 STARLINK-6045,1 56462U 23064Q   24030.59725377 -.00000541  00000-0 -37578-4 0  9998,2 56462  69.9995 243.4236 0002549 266.5993  93.4874 14.98333452 41031,6950.182,96.107,573.819,570.276,0.0
56462.0,STARLINK-6045,PAYLOAD,2024-01-30 22:20:43,14.98332329,0.0002609,69.9997,242.5822,267.2694,92.8166,-5.1891e-05,-7.12e-06,0.0,0 STARLINK-6045,1 56462U 23064Q   24030.93105410 -.00000712  00000-0 -51891-4 0  9990,2 56462  69.9997 242.5822 0002609 267.2694  92.8166 14.98332329 41081,6950.186,96.107,573.864,570.237,0.0
56462.0,STARLINK-6045,PAYLOAD,2024-01-30 23:56:51,14.98332697,0.0002617,69.9997,242.4139,267.4124,92.6735,-4.7786e-05,-6.63e-06,0.0,0 STARLINK-6045,1 56462U 23064Q   24030.99781362 -.00000663  00000-0 -47786-4 0  9995,2 56462  69.9997 242.4139 0002617 267.4124  92.6735 14.98332697 41459,6950.185,96.107,573.868,570.231,0.0
56462.0,STARLINK-6045,PAYLOAD,2024-01-31 23:58:51,14.98331907,0.0002691,69.9998,239.8895,270.5845,89.5006,2.4312e-05,1.97e-06,0.0,0 STARLINK-6045,1 56462U 23064Q   24031.99921044  .00000197  00000-0  24312-4 0  9999,2 56462  69.9998 239.8895 0002691 270.5845  89.5006 14.98331907 41602,6950.187,96.107,573.922,570.182,0.0
56462.0,STARLINK-6045,PAYLOAD,2024-02-01 12:47:56,14.98330074,0.0002793,69.9996,238.5434,274.978,85.106,-4.8038e-06,-1.5e-06,0.0,0 STARLINK-6045,1 56462U 23064Q   24032.53329211 -.00000150  00000-0 -48038-5 0  9991,2 56462  69.9996 238.5434 0002793 274.9780  85.1060 14.98330074 41329,6950.193,96.107,573.999,570.116,0.0
56462.0,STARLINK-6045,PAYLOAD,2024-02-02 00:00:52,14.98331629,0.0002678,69.9999,237.3657,272.8111,87.2742,1.6796e-05,1.07e-06,0.0,0 STARLINK-6045,1 56462U 23064Q   24033.00060993  .00000107  00000-0  16796-4 0  9998,2 56462  69.9999 237.3657 0002678 272.8111  87.2742 14.98331629 41757,6950.188,96.107,573.914,570.192,0.0
56462.0,STARLINK-6045,PAYLOAD,2024-02-02 14:26:05,14.98331743,0.0002588,69.9998,235.8504,274.1167,85.9696,6.1305e-06,-2e-07,0.0,0 STARLINK-6045,1 56462U 23064Q   24033.60144927 -.00000020  00000-0  61305-5 0  9996,2 56462  69.9998 235.8504 0002588 274.1167  85.9696 14.98331743 41486,6950.188,96.107,573.851,570.254,0.0
56462.0,STARLINK-6045,PAYLOAD,2024-02-02 22:26:45,14.98331794,0.0002578,70.0001,235.0086,266.9782,93.1082,8.5936e-06,1e-07,0.0,0 STARLINK-6045,1 56462U 23064Q   24033.93524815  .00000010  00000-0  85936-5 0  9994,2 56462  70.0001 235.0086 0002578 266.9782  93.1082 14.98331794 41534,6950.187,96.107,573.844,570.261,0.0
56462.0,STARLINK-6045,PAYLOAD,2024-02-03 12:51:58,14.98330051,0.0002528,70.0002,233.4937,267.2309,92.8561,-1.4365e-05,-2.64e-06,0.0,0 STARLINK-6045,1 56462U 23064Q   24034.53608946 -.00000264  00000-0 -14365-4 0  9999,2 56462  70.0002 233.4937 0002528 267.2309  92.8561 14.98330051 41629,6950.193,96.107,573.815,570.301,0.0
56462.0,STARLINK-6045,PAYLOAD,2024-02-03 19:16:30,14.98329522,0.0002567,70.0001,232.8205,266.9859,93.1006,-2.1644e-05,-3.51e-06,0.0,0 STARLINK-6045,1 56462U 23064Q   24034.80312978 -.00000351  00000-0 -21644-4 0  9991,2 56462  70.0001 232.8205 0002567 266.9859  93.1006 14.98329522 42022,6950.194,96.107,573.843,570.275,0.0
56462.0,STARLINK-6045,PAYLOAD,2024-02-03 22:28:46,14.98329549,0.0002568,70.0001,232.484,267.3898,92.6967,-2.0274e-05,-3.35e-06,0.0,0 STARLINK-6045,1 56462U 23064Q   24034.93664972 -.00000335  00000-0 -20274-4 0  9999,2 56462  70.0001 232.4840 0002568 267.3898  92.6967 14.98329549 41682,6950.194,96.107,573.844,570.274,0.0
